[{"OBJECT_NAME":"ONEWEB-0333","OBJECT_ID":"2021-083P","EPOCH":"2026-01-01T23:55:26.213088","MEAN_MOTION":13.13469218,"ECCENTRICITY":0.00017694,"INCLINATION":87.8971,"RA_OF_ASC_NODE":353.2794,"ARG_OF_PERICENTER":85.8352,"MEAN_ANOMALY":274.2979,"EPHEMERIS_TYPE":0,"CLASSIFICATION_TYPE":"U","NORAD_CAT_ID":49199,"ELEMENT_SET_NO":999,"REV_AT_EPOCH":20909,"BSTAR":-0.00081312265,"MEAN_MOTION_DOT":-2.84e-6,"MEAN_MOTION_DDOT":0},{"OBJECT_NAME":"ONEWEB-0334","OBJECT_ID":"2021-083Q","EPOCH":"2026-01-02T07:27:43.241760","MEAN_MOTION":13.20773736,"ECCENTRICITY":0.00019473,"INCLINATION":87.9214,"RA_OF_ASC_NODE":307.5452,"ARG_OF_PERICENTER":46.3373,"MEAN_ANOMALY":313.7921,"EPHEMERIS_TYPE":0,"CLASSIFICATION_TYPE":"U","NORAD_CAT_ID":49200,"ELEMENT_SET_NO":999,"REV_AT_EPOCH":21489,"BSTAR":0.00027383593,"MEAN_MOTION_DOT":1.24e-6,"MEAN_MOTION_DDOT":0},{"OBJECT_NAME":"ONEWEB-0335","OBJECT_ID":"2021-083R","EPOCH":"2026-01-01T23:48:07.808256","MEAN_MOTION":13.13468707,"ECCENTRICITY":0.0001834,"INCLINATION":87.8979,"RA_OF_ASC_NODE":353.2694,"ARG_OF_PERICENTER":92.3722,"MEAN_ANOMALY":267.7617,"EPHEMERIS_TYPE":0,"CLASSIFICATION_TYPE":"U","NORAD_CAT_ID":49201,"ELEMENT_SET_NO":999,"REV_AT_EPOCH":20910,"BSTAR":-0.00074384,"MEAN_MOTION_DOT":-2.59e-6,"MEAN_MOTION_DDOT":0},{"OBJECT_NAME":"ONEWEB-0336","OBJECT_ID":"2021-083S","EPOCH":"2026-01-02T06:25:28.208640","MEAN_MOTION":13.13468248,"ECCENTRICITY":0.00018699,"INCLINATION":87.8976,"RA_OF_ASC_NODE":353.2113,"ARG_OF_PERICENTER":98.9178,"MEAN_ANOMALY":261.2163,"EPHEMERIS_TYPE":0,"CLASSIFICATION_TYPE":"U","NORAD_CAT_ID":49202,"ELEMENT_SET_NO":999,"REV_AT_EPOCH":20913,"BSTAR":0.00082194953,"MEAN_MOTION_DOT":3.13e-6,"MEAN_MOTION_DDOT":0},{"OBJECT_NAME":"ONEWEB-0337","OBJECT_ID":"2021-083T","EPOCH":"2026-01-02T01:10:48.721728","MEAN_MOTION":13.13469414,"ECCENTRICITY":0.00016182,"INCLINATION":87.8978,"RA_OF_ASC_NODE":353.2665,"ARG_OF_PERICENTER":94.009,"MEAN_ANOMALY":266.1224,"EPHEMERIS_TYPE":0,"CLASSIFICATION_TYPE":"U","NORAD_CAT_ID":49203,"ELEMENT_SET_NO":999,"REV_AT_EPOCH":20910,"BSTAR":0.00041564487,"MEAN_MOTION_DOT":1.65e-6,"MEAN_MOTION_DDOT":0},{"OBJECT_NAME":"ONEWEB-0338","OBJECT_ID":"2021-083U","EPOCH":"2026-01-02T06:51:22.705344","MEAN_MOTION":13.20772387,"ECCENTRICITY":0.00016672,"INCLINATION":87.9217,"RA_OF_ASC_NODE":307.5528,"ARG_OF_PERICENTER":69.7412,"MEAN_ANOMALY":290.39,"EPHEMERIS_TYPE":0,"CLASSIFICATION_TYPE":"U","NORAD_CAT_ID":49204,"ELEMENT_SET_NO":999,"REV_AT_EPOCH":21491,"BSTAR":5.5124081e-5,"MEAN_MOTION_DOT":3.5e-7,"MEAN_MOTION_DDOT":0},{"OBJECT_NAME":"ONEWEB-0339","OBJECT_ID":"2021-083V","EPOCH":"2026-01-01T23:33:29.936736","MEAN_MOTION":13.13469383,"ECCENTRICITY":0.0001562,"INCLINATION":87.898,"RA_OF_ASC_NODE":353.2628,"ARG_OF_PERICENTER":86.671,"MEAN_ANOMALY":273.4598,"EPHEMERIS_TYPE":0,"CLASSIFICATION_TYPE":"U","NORAD_CAT_ID":49205,"ELEMENT_SET_NO":999,"REV_AT_EPOCH":20907,"BSTAR":-0.00028318,"MEAN_MOTION_DOT":-9.1e-7,"MEAN_MOTION_DDOT":0},{"OBJECT_NAME":"ONEWEB-0340","OBJECT_ID":"2021-083W","EPOCH":"2026-01-02T06:26:03.560064","MEAN_MOTION":13.18687135,"ECCENTRICITY":0.00018131,"INCLINATION":87.9176,"RA_OF_ASC_NODE":8.3976,"ARG_OF_PERICENTER":91.1161,"MEAN_ANOMALY":269.0179,"EPHEMERIS_TYPE":0,"CLASSIFICATION_TYPE":"U","NORAD_CAT_ID":49206,"ELEMENT_SET_NO":999,"REV_AT_EPOCH":20810,"BSTAR":0.00025306222,"MEAN_MOTION_DOT":1.13e-6,"MEAN_MOTION_DDOT":0},{"OBJECT_NAME":"ONEWEB-0341","OBJECT_ID":"2021-083X","EPOCH":"2026-01-02T06:35:33.509760","MEAN_MOTION":13.186852,"ECCENTRICITY":0.00013589,"INCLINATION":87.9173,"RA_OF_ASC_NODE":8.4072,"ARG_OF_PERICENTER":103.7312,"MEAN_ANOMALY":256.3971,"EPHEMERIS_TYPE":0,"CLASSIFICATION_TYPE":"U","NORAD_CAT_ID":49207,"ELEMENT_SET_NO":999,"REV_AT_EPOCH":20812,"BSTAR":-0.00044599864,"MEAN_MOTION_DOT":-1.63e-6,"MEAN_MOTION_DDOT":0},{"OBJECT_NAME":"ONEWEB-0342","OBJECT_ID":"2021-083Y","EPOCH":"2026-01-02T05:11:22.047360","MEAN_MOTION":13.20772181,"ECCENTRICITY":0.00016848,"INCLINATION":87.9223,"RA_OF_ASC_NODE":307.5398,"ARG_OF_PERICENTER":72.0255,"MEAN_ANOMALY":288.1062,"EPHEMERIS_TYPE":0,"CLASSIFICATION_TYPE":"U","NORAD_CAT_ID":49208,"ELEMENT_SET_NO":999,"REV_AT_EPOCH":21487,"BSTAR":-3.458905e-5,"MEAN_MOTION_DOT":-1.0e-8,"MEAN_MOTION_DDOT":0},{"OBJECT_NAME":"ONEWEB-0343","OBJECT_ID":"2021-083Z","EPOCH":"2026-01-02T06:47:26.704608","MEAN_MOTION":13.18686197,"ECCENTRICITY":0.00011578,"INCLINATION":87.9176,"RA_OF_ASC_NODE":8.3986,"ARG_OF_PERICENTER":89.1651,"MEAN_ANOMALY":270.9614,"EPHEMERIS_TYPE":0,"CLASSIFICATION_TYPE":"U","NORAD_CAT_ID":49209,"ELEMENT_SET_NO":999,"REV_AT_EPOCH":20817,"BSTAR":3.85142e-7,"MEAN_MOTION_DOT":1.3e-7,"MEAN_MOTION_DDOT":0},{"OBJECT_NAME":"ONEWEB-0344","OBJECT_ID":"2021-083AA","EPOCH":"2026-01-01T23:26:11.101632","MEAN_MOTION":13.13468373,"ECCENTRICITY":0.0001476,"INCLINATION":87.8971,"RA_OF_ASC_NODE":353.2939,"ARG_OF_PERICENTER":101.6493,"MEAN_ANOMALY":258.4802,"EPHEMERIS_TYPE":0,"CLASSIFICATION_TYPE":"U","NORAD_CAT_ID":49210,"ELEMENT_SET_NO":999,"REV_AT_EPOCH":20907,"BSTAR":0.00018177,"MEAN_MOTION_DOT":7.9e-7,"MEAN_MOTION_DDOT":0},{"OBJECT_NAME":"ONEWEB-0345","OBJECT_ID":"2021-083AB","EPOCH":"2026-01-01T23:14:00.197376","MEAN_MOTION":13.13469544,"ECCENTRICITY":0.0001422,"INCLINATION":87.8979,"RA_OF_ASC_NODE":353.2571,"ARG_OF_PERICENTER":97.1386,"MEAN_ANOMALY":262.9905,"EPHEMERIS_TYPE":0,"CLASSIFICATION_TYPE":"U","NORAD_CAT_ID":49211,"ELEMENT_SET_NO":999,"REV_AT_EPOCH":20908,"BSTAR":0.0005285,"MEAN_MOTION_DOT":2.06e-6,"MEAN_MOTION_DDOT":0},{"OBJECT_NAME":"ONEWEB-0346","OBJECT_ID":"2021-083AC","EPOCH":"2026-01-02T01:14:55.530240","MEAN_MOTION":13.18684294,"ECCENTRICITY":0.00022723,"INCLINATION":87.9168,"RA_OF_ASC_NODE":8.4585,"ARG_OF_PERICENTER":99.2364,"MEAN_ANOMALY":260.9025,"EPHEMERIS_TYPE":0,"CLASSIFICATION_TYPE":"U","NORAD_CAT_ID":49212,"ELEMENT_SET_NO":999,"REV_AT_EPOCH":20808,"BSTAR":2.0035981e-5,"MEAN_MOTION_DOT":2.1e-7,"MEAN_MOTION_DDOT":0},{"OBJECT_NAME":"ONEWEB-0348","OBJECT_ID":"2021-083AD","EPOCH":"2026-01-02T06:46:49.231200","MEAN_MOTION":13.20772826,"ECCENTRICITY":0.00017466,"INCLINATION":87.9222,"RA_OF_ASC_NODE":307.5307,"ARG_OF_PERICENTER":97.7999,"MEAN_ANOMALY":262.3332,"EPHEMERIS_TYPE":0,"CLASSIFICATION_TYPE":"U","NORAD_CAT_ID":49213,"ELEMENT_SET_NO":999,"REV_AT_EPOCH":21491,"BSTAR":-0.00011858811,"MEAN_MOTION_DOT":-3.5e-7,"MEAN_MOTION_DDOT":0},{"OBJECT_NAME":"ONEWEB-0350","OBJECT_ID":"2021-083AE","EPOCH":"2026-01-01T23:27:23.760576","MEAN_MOTION":13.13467375,"ECCENTRICITY":0.0001522,"INCLINATION":87.8987,"RA_OF_ASC_NODE":353.2533,"ARG_OF_PERICENTER":97.067,"MEAN_ANOMALY":263.0633,"EPHEMERIS_TYPE":0,"CLASSIFICATION_TYPE":"U","NORAD_CAT_ID":49214,"ELEMENT_SET_NO":999,"REV_AT_EPOCH":20911,"BSTAR":-4.8908e-5,"MEAN_MOTION_DOT":-5.0e-8,"MEAN_MOTION_DDOT":0},{"OBJECT_NAME":"ONEWEB-0351","OBJECT_ID":"2021-083AF","EPOCH":"2026-01-02T06:37:32.666592","MEAN_MOTION":13.20771279,"ECCENTRICITY":0.00012904,"INCLINATION":87.9228,"RA_OF_ASC_NODE":307.5292,"ARG_OF_PERICENTER":46.2878,"MEAN_ANOMALY":313.8362,"EPHEMERIS_TYPE":0,"CLASSIFICATION_TYPE":"U","NORAD_CAT_ID":49215,"ELEMENT_SET_NO":999,"REV_AT_EPOCH":21487,"BSTAR":6.2133619e-5,"MEAN_MOTION_DOT":3.8e-7,"MEAN_MOTION_DDOT":0}]
