ONEWEB-0333             
1 49199U 21083P   26001.99683117 -.00000284  00000+0 -81312-3 0  9992
2 49199  87.8971 353.2794 0001769  85.8352 274.2979 13.13469218209099
ONEWEB-0334             
1 49200U 21083Q   26002.31091715  .00000124  00000+0  27384-3 0  9999
2 49200  87.9214 307.5452 0001947  46.3373 313.7921 13.20773736214890
ONEWEB-0335             
1 49201U 21083R   26001.99175704 -.00000259  00000+0 -74384-3 0  9997
2 49201  87.8979 353.2694 0001834  92.3722 267.7617 13.13468707209107
ONEWEB-0336             
1 49202U 21083S   26002.26768760  .00000313  00000+0  82195-3 0  9997
2 49202  87.8976 353.2113 0001869  98.9178 261.2163 13.13468248209134
ONEWEB-0337             
1 49203U 21083T   26002.04917502  .00000165  00000+0  41564-3 0  9994
2 49203  87.8978 353.2665 0001618  94.0090 266.1224 13.13469414209106
ONEWEB-0338             
1 49204U 21083U   26002.28567946  .00000035  00000+0  55124-4 0  9998
2 49204  87.9217 307.5528 0001667  69.7412 290.3900 13.20772387214914
ONEWEB-0339             
1 49205U 21083V   26001.98159649 -.00000091  00000+0 -28318-3 0  9990
2 49205  87.8980 353.2628 0001562  86.6710 273.4598 13.13469383209070
ONEWEB-0340             
1 49206U 21083W   26002.26809676  .00000113  00000+0  25306-3 0  9992
2 49206  87.9176   8.3976 0001813  91.1161 269.0179 13.18687135208104
ONEWEB-0341             
1 49207U 21083X   26002.27469340 -.00000163  00000+0 -44600-3 0  9999
2 49207  87.9173   8.4072 0001358 103.7312 256.3971 13.18685200208124
ONEWEB-0342             
1 49208U 21083Y   26002.21622740 -.00000001  00000+0 -34589-4 0  9996
2 49208  87.9223 307.5398 0001684  72.0255 288.1062 13.20772181214872
ONEWEB-0343             
1 49209U 21083Z   26002.28294797  .00000013  00000+0  38514-6 0  9996
2 49209  87.9176   8.3986 0001157  89.1651 270.9614 13.18686197208179
ONEWEB-0344             
1 49210U 21083AA  26001.97651738  .00000079  00000+0  18177-3 0  9997
2 49210  87.8971 353.2939 0001476 101.6493 258.4802 13.13468373209070
ONEWEB-0345             
1 49211U 21083AB  26001.96805784  .00000206  00000+0  52850-3 0  9997
2 49211  87.8979 353.2571 0001422  97.1386 262.9905 13.13469544209088
ONEWEB-0346             
1 49212U 21083AC  26002.05203160  .00000021  00000+0  20036-4 0  9996
2 49212  87.9168   8.4585 0002272  99.2364 260.9025 13.18684294208083
ONEWEB-0348             
1 49213U 21083AD  26002.28251425 -.00000035  00000+0 -11859-3 0  9998
2 49213  87.9222 307.5307 0001746  97.7999 262.3332 13.20772826214910
ONEWEB-0350             
1 49214U 21083AE  26001.97735834 -.00000005  00000+0 -48908-4 0  9998
2 49214  87.8987 353.2533 0001522  97.0670 263.0633 13.13467375209118
ONEWEB-0351             
1 49215U 21083AF  26002.27607253  .00000038  00000+0  62134-4 0  9997
2 49215  87.9228 307.5292 0001290  46.2878 313.8362 13.20771279214871
